SL-16 R/B               
1 24298U 96051B   25319.71782063  .00000014  00000+0  34120-4 0  9998
2 24298  70.7607  56.4781 0018310 295.2919  64.6303 14.12393493505556
ORBVIEW 2 (SEASTAR)     
1 24883U 97037A   25319.72974956  .00000755  00000+0  27929-3 0  9998
2 24883  98.8449 116.1269 0002902  53.8824 306.2629 14.35388323492124
SL-16 R/B               
1 25400U 98043G   25319.78493306  .00000213  00000+0  10799-3 0  9999
2 25400  98.8079 267.4583 0009684 351.4061   8.6951 14.26016094422758
SL-16 R/B               
1 25407U 98045B   25319.71187872 -.00000139  00000+0 -46202-4 0  9997
2 25407  71.0121  61.2633 0008535 214.8336 145.2230 14.16168897410969
ISS (ZARYA)             
1 25544U 98067A   25319.38552854  .00013221  00000+0  24188-3 0  9994
2 25544  51.6327 277.8788 0004161  73.2410 286.9034 15.49683527538617
CZ-4B R/B               
1 25732U 99025C   25319.60861829  .00000197  00000+0  11623-3 0  9996
2 25732  98.6811   1.4901 0036285 314.1819 214.4654 14.18233931371990
OKEAN-O                 
1 25860U 99039A   25319.61322595  .00001530  00000+0  20867-3 0  9998
2 25860  97.9645  15.5451 0001362  67.1493 292.9863 14.80096071417519
SL-16 R/B               
1 25861U 99039B   25319.63446441  .00001307  00000+0  17332-3 0  9993
2 25861  98.0168  13.7789 0013500 267.3962  92.5705 14.81530657419973
DELTA 2 R/B             
1 25876U 99041E   25319.59133208  .00001555  00000+0  28947-3 0  9990
2 25876  51.7631  36.8090 0504885  11.7694 349.4539 14.11306345346915
HELIOS 1B               
1 25977U 99064A   25319.68908436  .00002552  00000+0  29053-3 0  9997
2 25977  98.1757 213.5555 0002564  79.0842 281.0661 14.87126974668319
TERRA                   
1 25994U 99068A   25319.83034203  .00001099  00000+0  23354-3 0  9992
2 25994  97.9789  12.4962 0002580 154.1746 335.8033 14.60908557378454
SL-16 R/B               
1 26070U 00006B   25319.48580041 -.00000138  00000+0 -45941-4 0  9991
2 26070  71.0029 337.9643 0017036 346.8402  13.2274 14.15802148332398
