CCSDS_OMM_VERS = 2.0
CREATION_DATE  = 
ORIGINATOR     = 

OBJECT_NAME    = SL-16 R/B
OBJECT_ID      = 1996-051B
CENTER_NAME    = EARTH
REF_FRAME      = TEME
TIME_SYSTEM    = UTC
MEAN_ELEMENT_THEORY = SGP/SGP4

EPOCH          = 2025-11-15T17:13:39.702432
MEAN_MOTION    = 14.12393493
ECCENTRICITY   = .001831
INCLINATION    = 70.7607
RA_OF_ASC_NODE = 56.4781
ARG_OF_PERICENTER = 295.2919
MEAN_ANOMALY   = 64.6303

EPHEMERIS_TYPE = 0
CLASSIFICATION_TYPE = U
NORAD_CAT_ID   = 24298
ELEMENT_SET_NO = 999
REV_AT_EPOCH   = 50555
BSTAR          = .3412E-4
MEAN_MOTION_DOT = .14E-6
MEAN_MOTION_DDOT = 0

CCSDS_OMM_VERS = 2.0
CREATION_DATE  = 
ORIGINATOR     = 

OBJECT_NAME    = ORBVIEW 2 (SEASTAR)
OBJECT_ID      = 1997-037A
CENTER_NAME    = EARTH
REF_FRAME      = TEME
TIME_SYSTEM    = UTC
MEAN_ELEMENT_THEORY = SGP/SGP4

EPOCH          = 2025-11-15T17:30:50.361984
MEAN_MOTION    = 14.35388323
ECCENTRICITY   = .0002902
INCLINATION    = 98.8449
RA_OF_ASC_NODE = 116.1269
ARG_OF_PERICENTER = 53.8824
MEAN_ANOMALY   = 306.2629

EPHEMERIS_TYPE = 0
CLASSIFICATION_TYPE = U
NORAD_CAT_ID   = 24883
ELEMENT_SET_NO = 999
REV_AT_EPOCH   = 49212
BSTAR          = .27929E-3
MEAN_MOTION_DOT = .755E-5
MEAN_MOTION_DDOT = 0

CCSDS_OMM_VERS = 2.0
CREATION_DATE  = 
ORIGINATOR     = 

OBJECT_NAME    = SL-16 R/B
OBJECT_ID      = 1998-043G
CENTER_NAME    = EARTH
REF_FRAME      = TEME
TIME_SYSTEM    = UTC
MEAN_ELEMENT_THEORY = SGP/SGP4

EPOCH          = 2025-11-15T18:50:18.216384
MEAN_MOTION    = 14.26016094
ECCENTRICITY   = .0009684
INCLINATION    = 98.8079
RA_OF_ASC_NODE = 267.4583
ARG_OF_PERICENTER = 351.4061
MEAN_ANOMALY   = 8.6951

EPHEMERIS_TYPE = 0
CLASSIFICATION_TYPE = U
NORAD_CAT_ID   = 25400
ELEMENT_SET_NO = 999
REV_AT_EPOCH   = 42275
BSTAR          = .10799E-3
MEAN_MOTION_DOT = .213E-5
MEAN_MOTION_DDOT = 0

CCSDS_OMM_VERS = 2.0
CREATION_DATE  = 
ORIGINATOR     = 

OBJECT_NAME    = SL-16 R/B
OBJECT_ID      = 1998-045B
CENTER_NAME    = EARTH
REF_FRAME      = TEME
TIME_SYSTEM    = UTC
MEAN_ELEMENT_THEORY = SGP/SGP4

EPOCH          = 2025-11-15T17:05:06.321408
MEAN_MOTION    = 14.16168897
ECCENTRICITY   = .0008535
INCLINATION    = 71.0121
RA_OF_ASC_NODE = 61.2633
ARG_OF_PERICENTER = 214.8336
MEAN_ANOMALY   = 145.2230

EPHEMERIS_TYPE = 0
CLASSIFICATION_TYPE = U
NORAD_CAT_ID   = 25407
ELEMENT_SET_NO = 999
REV_AT_EPOCH   = 41096
BSTAR          = -.46202E-4
MEAN_MOTION_DOT = -.139E-5
MEAN_MOTION_DDOT = 0

CCSDS_OMM_VERS = 2.0
CREATION_DATE  = 
ORIGINATOR     = 

OBJECT_NAME    = ISS (ZARYA)
OBJECT_ID      = 1998-067A
CENTER_NAME    = EARTH
REF_FRAME      = TEME
TIME_SYSTEM    = UTC
MEAN_ELEMENT_THEORY = SGP/SGP4

EPOCH          = 2025-11-15T09:15:09.665856
MEAN_MOTION    = 15.49683527
ECCENTRICITY   = .0004161
INCLINATION    = 51.6327
RA_OF_ASC_NODE = 277.8788
ARG_OF_PERICENTER = 73.2410
MEAN_ANOMALY   = 286.9034

EPHEMERIS_TYPE = 0
CLASSIFICATION_TYPE = U
NORAD_CAT_ID   = 25544
ELEMENT_SET_NO = 999
REV_AT_EPOCH   = 53861
BSTAR          = .24188E-3
MEAN_MOTION_DOT = .13221E-3
MEAN_MOTION_DDOT = 0

CCSDS_OMM_VERS = 2.0
CREATION_DATE  = 
ORIGINATOR     = 

OBJECT_NAME    = CZ-4B R/B
OBJECT_ID      = 1999-025C
CENTER_NAME    = EARTH
REF_FRAME      = TEME
TIME_SYSTEM    = UTC
MEAN_ELEMENT_THEORY = SGP/SGP4

EPOCH          = 2025-11-15T14:36:24.620256
MEAN_MOTION    = 14.18233931
ECCENTRICITY   = .0036285
INCLINATION    = 98.6811
RA_OF_ASC_NODE = 1.4901
ARG_OF_PERICENTER = 314.1819
MEAN_ANOMALY   = 214.4654

EPHEMERIS_TYPE = 0
CLASSIFICATION_TYPE = U
NORAD_CAT_ID   = 25732
ELEMENT_SET_NO = 999
REV_AT_EPOCH   = 37199
BSTAR          = .11623E-3
MEAN_MOTION_DOT = .197E-5
MEAN_MOTION_DDOT = 0

CCSDS_OMM_VERS = 2.0
CREATION_DATE  = 
ORIGINATOR     = 

OBJECT_NAME    = OKEAN-O
OBJECT_ID      = 1999-039A
CENTER_NAME    = EARTH
REF_FRAME      = TEME
TIME_SYSTEM    = UTC
MEAN_ELEMENT_THEORY = SGP/SGP4

EPOCH          = 2025-11-15T14:43:02.722080
MEAN_MOTION    = 14.80096071
ECCENTRICITY   = .0001362
INCLINATION    = 97.9645
RA_OF_ASC_NODE = 15.5451
ARG_OF_PERICENTER = 67.1493
MEAN_ANOMALY   = 292.9863

EPHEMERIS_TYPE = 0
CLASSIFICATION_TYPE = U
NORAD_CAT_ID   = 25860
ELEMENT_SET_NO = 999
REV_AT_EPOCH   = 41751
BSTAR          = .20867E-3
MEAN_MOTION_DOT = .153E-4
MEAN_MOTION_DDOT = 0

CCSDS_OMM_VERS = 2.0
CREATION_DATE  = 
ORIGINATOR     = 

OBJECT_NAME    = SL-16 R/B
OBJECT_ID      = 1999-039B
CENTER_NAME    = EARTH
REF_FRAME      = TEME
TIME_SYSTEM    = UTC
MEAN_ELEMENT_THEORY = SGP/SGP4

EPOCH          = 2025-11-15T15:13:37.725024
MEAN_MOTION    = 14.81530657
ECCENTRICITY   = .00135
INCLINATION    = 98.0168
RA_OF_ASC_NODE = 13.7789
ARG_OF_PERICENTER = 267.3962
MEAN_ANOMALY   = 92.5705

EPHEMERIS_TYPE = 0
CLASSIFICATION_TYPE = U
NORAD_CAT_ID   = 25861
ELEMENT_SET_NO = 999
REV_AT_EPOCH   = 41997
BSTAR          = .17332E-3
MEAN_MOTION_DOT = .1307E-4
MEAN_MOTION_DDOT = 0

CCSDS_OMM_VERS = 2.0
CREATION_DATE  = 
ORIGINATOR     = 

OBJECT_NAME    = DELTA 2 R/B
OBJECT_ID      = 1999-041E
CENTER_NAME    = EARTH
REF_FRAME      = TEME
TIME_SYSTEM    = UTC
MEAN_ELEMENT_THEORY = SGP/SGP4

EPOCH          = 2025-11-15T14:11:31.091712
MEAN_MOTION    = 14.11306345
ECCENTRICITY   = .0504885
INCLINATION    = 51.7631
RA_OF_ASC_NODE = 36.8090
ARG_OF_PERICENTER = 11.7694
MEAN_ANOMALY   = 349.4539

EPHEMERIS_TYPE = 0
CLASSIFICATION_TYPE = U
NORAD_CAT_ID   = 25876
ELEMENT_SET_NO = 999
REV_AT_EPOCH   = 34691
BSTAR          = .28947E-3
MEAN_MOTION_DOT = .1555E-4
MEAN_MOTION_DDOT = 0

CCSDS_OMM_VERS = 2.0
CREATION_DATE  = 
ORIGINATOR     = 

OBJECT_NAME    = HELIOS 1B
OBJECT_ID      = 1999-064A
CENTER_NAME    = EARTH
REF_FRAME      = TEME
TIME_SYSTEM    = UTC
MEAN_ELEMENT_THEORY = SGP/SGP4

EPOCH          = 2025-11-15T16:32:16.888704
MEAN_MOTION    = 14.87126974
ECCENTRICITY   = .0002564
INCLINATION    = 98.1757
RA_OF_ASC_NODE = 213.5555
ARG_OF_PERICENTER = 79.0842
MEAN_ANOMALY   = 281.0661

EPHEMERIS_TYPE = 0
CLASSIFICATION_TYPE = U
NORAD_CAT_ID   = 25977
ELEMENT_SET_NO = 999
REV_AT_EPOCH   = 66831
BSTAR          = .29053E-3
MEAN_MOTION_DOT = .2552E-4
MEAN_MOTION_DDOT = 0

CCSDS_OMM_VERS = 2.0
CREATION_DATE  = 
ORIGINATOR     = 

OBJECT_NAME    = TERRA
OBJECT_ID      = 1999-068A
CENTER_NAME    = EARTH
REF_FRAME      = TEME
TIME_SYSTEM    = UTC
MEAN_ELEMENT_THEORY = SGP/SGP4

EPOCH          = 2025-11-15T19:55:41.551392
MEAN_MOTION    = 14.60908557
ECCENTRICITY   = .000258
INCLINATION    = 97.9789
RA_OF_ASC_NODE = 12.4962
ARG_OF_PERICENTER = 154.1746
MEAN_ANOMALY   = 335.8033

EPHEMERIS_TYPE = 0
CLASSIFICATION_TYPE = U
NORAD_CAT_ID   = 25994
ELEMENT_SET_NO = 999
REV_AT_EPOCH   = 37845
BSTAR          = .23354E-3
MEAN_MOTION_DOT = .1099E-4
MEAN_MOTION_DDOT = 0

CCSDS_OMM_VERS = 2.0
CREATION_DATE  = 
ORIGINATOR     = 

OBJECT_NAME    = SL-16 R/B
OBJECT_ID      = 2000-006B
CENTER_NAME    = EARTH
REF_FRAME      = TEME
TIME_SYSTEM    = UTC
MEAN_ELEMENT_THEORY = SGP/SGP4

EPOCH          = 2025-11-15T11:39:33.155424
MEAN_MOTION    = 14.15802148
ECCENTRICITY   = .0017036
INCLINATION    = 71.0029
RA_OF_ASC_NODE = 337.9643
ARG_OF_PERICENTER = 346.8402
MEAN_ANOMALY   = 13.2274

EPHEMERIS_TYPE = 0
CLASSIFICATION_TYPE = U
NORAD_CAT_ID   = 26070
ELEMENT_SET_NO = 999
REV_AT_EPOCH   = 33239
BSTAR          = -.45941E-4
MEAN_MOTION_DOT = -.138E-5
MEAN_MOTION_DDOT = 0

